QIANFAN-89              
1 63175U 25046S   25303.25263341  .00000094  00000+0  12783-3 0  9994
2 63175  88.9770 324.5425 0014656 248.6888 111.2699 13.50973735 41539
QIANFAN-90              
1 63176U 25046T   25303.28135713  .00000019  00000+0  11543-4 0  9990
2 63176  88.9770 324.5118 0011624 245.7683 114.2254 13.50973953 41556
